GLOBALSTAR M057 [-]     
1 25943U 99058A   23246.41146929 -.00000121  00000+0 -25161-3 0  9990
2 25943  52.0000  40.6781 0003423 106.8068 253.3157 12.24771026 86944
GLOBALSTAR M059 [-]     
1 25944U 99058B   23246.56119252 -.00000122  00000+0 -44649-3 0  9999
2 25944  52.0006 172.6920 0000690  65.5728 105.4807 11.99952412495695
GLOBALSTAR M056 [-]     
1 25945U 99058C   23246.59598995 -.00000105  00000+0 -20337-3 0  9997
2 25945  51.9949 191.3260 0001139 339.0111 192.0712 12.04767751 83966
GLOBALSTAR M031 [-]     
1 25946U 99058D   23246.37472005 -.00000141  00000+0 -51155-3 0  9999
2 25946  51.9951 123.3032 0001298 320.2654 211.4110 12.15995040 85126
GLOBALSTAR M039 [-]     
1 25961U 99062A   23246.30924048 -.00000073  00000+0  17357-3 0  9992
2 25961  51.9839  97.1512 0002947 357.8044   2.2809 12.62269263 97767
GLOBALSTAR M034 [-]     
1 25962U 99062B   23246.37084220 -.00000081  00000+0 -95093-5 0  9994
2 25962  51.9852 268.2862 0014089 248.1664 125.3930 11.79414559 61368
GLOBALSTAR M029 [-]     
1 25963U 99062C   23246.48923000 -.00000090  00000+0 -46197-4 0  9995
2 25963  51.9807  61.4777 0001791 283.3814  92.2938 11.99867042 90779
GLOBALSTAR M061 [-]     
1 25964U 99062D   23246.34919653 -.00000088  00000+0 -13052-3 0  9990
2 25964  51.9790  83.7249 0005783 170.6209 247.1979 11.76749322 44324
